{"epoch":1784799577,"count":18318,"objects":[{"id":"43800","name":"ICEYE-X2","type":"PAYLOAD","l1":"1 43800U 18099AU  26203.93691877  .00005707  00000-0  28274-3 0  9990","l2":"2 43800  97.4343 257.1523 0010713 167.8055 192.3441 15.18104754418245"},{"id":"44389","name":"ICEYE-X5","type":"PAYLOAD","l1":"1 44389U 19038C   26203.94422738  .00060002  00000-0  78701-3 0  9995","l2":"2 44389  97.8668 262.3124 0007554 128.7439 231.4492 15.58333687388529"},{"id":"44390","name":"ICEYE-X4","type":"PAYLOAD","l1":"1 44390U 19038D   26203.97998940  .00014558  00000-0  50222-3 0  9996","l2":"2 44390  97.8751 239.0133 0013654 171.2745 188.8735 15.30010644387277"},{"id":"46496","name":"ICEYE-X7","type":"PAYLOAD","l1":"1 46496U 20068L   26203.93729767  .00012863  00000-0  41568-3 0  9995","l2":"2 46496  97.7511 172.1113 0006971 183.0283 177.0916 15.32217481320263"},{"id":"46497","name":"ICEYE-X6","type":"PAYLOAD","l1":"1 46497U 20068M   26203.97012353  .00002319  00000-0  16954-3 0  9992","l2":"2 46497  98.0996 199.3598 0006420 346.5832  13.5221 15.04694845318619"},{"id":"56963","name":"ICEYE-X25","type":"PAYLOAD","l1":"1 56963U 23084AH  26203.93518076  .00032104  00000-0  35196-3 0  9995","l2":"2 56963  97.5914 352.7409 0004703 160.9470 199.1965 15.63185130173551"},{"id":"58288","name":"ICEYE-X31","type":"PAYLOAD","l1":"1 58288U 23174AJ  26203.92848064  .00019627  00000-0  57286-3 0  9998","l2":"2 58288  97.3765 279.6830 0003374 165.5780 194.5560 15.35364970150238"},{"id":"58294","name":"ICEYE-X34","type":"PAYLOAD","l1":"1 58294U 23174AQ  26203.25902328  .00192235  00000-0  13771-2 0  9992","l2":"2 58294  97.3850 296.3404 0002405 231.7701 128.3347 15.73127500151244"},{"id":"58302","name":"ICEYE-X35","type":"PAYLOAD","l1":"1 58302U 23174AY  26203.97490590  .00064029  00000-0  92227-3 0  9997","l2":"2 58302  97.3777 289.6212 0006912  81.1480 279.0557 15.55796133150905"},{"id":"59100","name":"ICEYE-X38","type":"PAYLOAD","l1":"1 59100U 24043C   26203.89656616  .00005115  00000-0  29254-3 0  9995","l2":"2 59100  97.8442 348.6415 0001699 354.4485   5.6726 15.13138357117079"},{"id":"59102","name":"ICEYE-X37","type":"PAYLOAD","l1":"1 59102U 24043E   26203.85481431  .00003889  00000-0  26838-3 0  9995","l2":"2 59102  97.8354 341.4294 0013946 245.4767 114.5006 15.06332991130459"},{"id":"59103","name":"ICEYE-X36","type":"PAYLOAD","l1":"1 59103U 24043F   26203.83742355  .00003910  00000-0  26344-3 0  9996","l2":"2 59103  97.8409 342.5589 0005918 184.0113 176.1068 15.07277037130512"},{"id":"60539","name":"ICEYE-X43","type":"PAYLOAD","l1":"1 60539U 24149BZ  26203.92415098  .00000913  00000-0  78616-4 0  9999","l2":"2 60539  97.6773 280.4070 0006488 314.4411  45.6281 14.99781230105476"},{"id":"60546","name":"ICEYE-X39","type":"PAYLOAD","l1":"1 60546U 24149CG  26203.49891011  .00003073  00000-0  25104-3 0  9995","l2":"2 60546  97.6804 280.0501 0006648  25.6510 334.5042 15.00112458105415"},{"id":"60548","name":"ICEYE-X33","type":"PAYLOAD","l1":"1 60548U 24149CJ  26203.16998232  .00003550  00000-0  28336-3 0  9994","l2":"2 60548  97.7381 282.1399 0001845  65.2412 294.9003 15.00927945105456"}]}