{"fetched_at":"2026-07-23T07:05:46.622Z","source":"https://celestrak.org/NORAD/elements/gp.php?NAME=ICEYE&FORMAT=JSON","constellation":"iceye","records":[{"OBJECT_NAME":"ICEYE-X2","OBJECT_ID":"2018-099AU","EPOCH":"2026-07-22T22:29:09.781728","CLASSIFICATION_TYPE":"U","MEAN_MOTION":15.18104754,"ECCENTRICITY":0.00107133,"INCLINATION":97.4343,"RA_OF_ASC_NODE":257.1523,"ARG_OF_PERICENTER":167.8055,"MEAN_ANOMALY":192.3441,"EPHEMERIS_TYPE":0,"NORAD_CAT_ID":43800,"ELEMENT_SET_NO":999,"REV_AT_EPOCH":41824,"BSTAR":0.00028274205,"MEAN_MOTION_DOT":0.00005707,"MEAN_MOTION_DDOT":0},{"OBJECT_NAME":"ICEYE-X5","OBJECT_ID":"2019-038C","EPOCH":"2026-07-22T22:39:41.245632","CLASSIFICATION_TYPE":"U","MEAN_MOTION":15.58333687,"ECCENTRICITY":0.00075537,"INCLINATION":97.8668,"RA_OF_ASC_NODE":262.3124,"ARG_OF_PERICENTER":128.7439,"MEAN_ANOMALY":231.4492,"EPHEMERIS_TYPE":0,"NORAD_CAT_ID":44389,"ELEMENT_SET_NO":999,"REV_AT_EPOCH":38852,"BSTAR":0.00078700585,"MEAN_MOTION_DOT":0.00060002,"MEAN_MOTION_DDOT":0},{"OBJECT_NAME":"ICEYE-X4","OBJECT_ID":"2019-038D","EPOCH":"2026-07-22T23:31:11.084160","CLASSIFICATION_TYPE":"U","MEAN_MOTION":15.30010644,"ECCENTRICITY":0.00136537,"INCLINATION":97.8751,"RA_OF_ASC_NODE":239.0133,"ARG_OF_PERICENTER":171.2745,"MEAN_ANOMALY":188.8735,"EPHEMERIS_TYPE":0,"NORAD_CAT_ID":44390,"ELEMENT_SET_NO":999,"REV_AT_EPOCH":38727,"BSTAR":0.00050221592,"MEAN_MOTION_DOT":0.00014558,"MEAN_MOTION_DDOT":0},{"OBJECT_NAME":"ICEYE-X7","OBJECT_ID":"2020-068L","EPOCH":"2026-07-22T22:29:42.518688","CLASSIFICATION_TYPE":"U","MEAN_MOTION":15.32217481,"ECCENTRICITY":0.00069715,"INCLINATION":97.7511,"RA_OF_ASC_NODE":172.1113,"ARG_OF_PERICENTER":183.0283,"MEAN_ANOMALY":177.0916,"EPHEMERIS_TYPE":0,"NORAD_CAT_ID":46496,"ELEMENT_SET_NO":999,"REV_AT_EPOCH":32026,"BSTAR":0.00041567584,"MEAN_MOTION_DOT":0.00012863,"MEAN_MOTION_DDOT":0},{"OBJECT_NAME":"ICEYE-X6","OBJECT_ID":"2020-068M","EPOCH":"2026-07-22T23:16:58.672992","CLASSIFICATION_TYPE":"U","MEAN_MOTION":15.04694845,"ECCENTRICITY":0.00064202,"INCLINATION":98.0996,"RA_OF_ASC_NODE":199.3598,"ARG_OF_PERICENTER":346.5832,"MEAN_ANOMALY":13.5221,"EPHEMERIS_TYPE":0,"NORAD_CAT_ID":46497,"ELEMENT_SET_NO":999,"REV_AT_EPOCH":31861,"BSTAR":0.00016954417,"MEAN_MOTION_DOT":0.00002319,"MEAN_MOTION_DDOT":0},{"OBJECT_NAME":"ICEYE-X25","OBJECT_ID":"2023-084AH","EPOCH":"2026-07-22T22:26:39.617664","CLASSIFICATION_TYPE":"U","MEAN_MOTION":15.6318513,"ECCENTRICITY":0.00047025,"INCLINATION":97.5914,"RA_OF_ASC_NODE":352.7409,"ARG_OF_PERICENTER":160.947,"MEAN_ANOMALY":199.1965,"EPHEMERIS_TYPE":0,"NORAD_CAT_ID":56963,"ELEMENT_SET_NO":999,"REV_AT_EPOCH":17355,"BSTAR":0.00035196432,"MEAN_MOTION_DOT":0.00032104,"MEAN_MOTION_DDOT":0},{"OBJECT_NAME":"ICEYE-X31","OBJECT_ID":"2023-174AJ","EPOCH":"2026-07-22T22:17:00.727296","CLASSIFICATION_TYPE":"U","MEAN_MOTION":15.3536497,"ECCENTRICITY":0.00033744,"INCLINATION":97.3765,"RA_OF_ASC_NODE":279.683,"ARG_OF_PERICENTER":165.578,"MEAN_ANOMALY":194.556,"EPHEMERIS_TYPE":0,"NORAD_CAT_ID":58288,"ELEMENT_SET_NO":999,"REV_AT_EPOCH":15023,"BSTAR":0.00057286128,"MEAN_MOTION_DOT":0.00019627,"MEAN_MOTION_DDOT":0},{"OBJECT_NAME":"ICEYE-X34","OBJECT_ID":"2023-174AQ","EPOCH":"2026-07-22T06:12:59.611392","CLASSIFICATION_TYPE":"U","MEAN_MOTION":15.731275,"ECCENTRICITY":0.00024046,"INCLINATION":97.385,"RA_OF_ASC_NODE":296.3404,"ARG_OF_PERICENTER":231.7701,"MEAN_ANOMALY":128.3347,"EPHEMERIS_TYPE":0,"NORAD_CAT_ID":58294,"ELEMENT_SET_NO":999,"REV_AT_EPOCH":15124,"BSTAR":0.0013770939,"MEAN_MOTION_DOT":0.00192235,"MEAN_MOTION_DDOT":0},{"OBJECT_NAME":"ICEYE-X35","OBJECT_ID":"2023-174AY","EPOCH":"2026-07-22T23:23:51.869760","CLASSIFICATION_TYPE":"U","MEAN_MOTION":15.55796133,"ECCENTRICITY":0.00069118,"INCLINATION":97.3777,"RA_OF_ASC_NODE":289.6212,"ARG_OF_PERICENTER":81.148,"MEAN_ANOMALY":279.0557,"EPHEMERIS_TYPE":0,"NORAD_CAT_ID":58302,"ELEMENT_SET_NO":999,"REV_AT_EPOCH":15090,"BSTAR":0.00092227084,"MEAN_MOTION_DOT":0.00064029,"MEAN_MOTION_DDOT":0},{"OBJECT_NAME":"ICEYE-X38","OBJECT_ID":"2024-043C","EPOCH":"2026-07-22T21:31:03.316224","CLASSIFICATION_TYPE":"U","MEAN_MOTION":15.13138357,"ECCENTRICITY":0.00016992,"INCLINATION":97.8442,"RA_OF_ASC_NODE":348.6415,"ARG_OF_PERICENTER":354.4485,"MEAN_ANOMALY":5.6726,"EPHEMERIS_TYPE":0,"NORAD_CAT_ID":59100,"ELEMENT_SET_NO":999,"REV_AT_EPOCH":11707,"BSTAR":0.00029254177,"MEAN_MOTION_DOT":0.00005115,"MEAN_MOTION_DDOT":0},{"OBJECT_NAME":"ICEYE-X37","OBJECT_ID":"2024-043E","EPOCH":"2026-07-22T20:30:55.956384","CLASSIFICATION_TYPE":"U","MEAN_MOTION":15.06332991,"ECCENTRICITY":0.00139456,"INCLINATION":97.8354,"RA_OF_ASC_NODE":341.4294,"ARG_OF_PERICENTER":245.4767,"MEAN_ANOMALY":114.5006,"EPHEMERIS_TYPE":0,"NORAD_CAT_ID":59102,"ELEMENT_SET_NO":999,"REV_AT_EPOCH":13045,"BSTAR":0.00026838092,"MEAN_MOTION_DOT":0.00003889,"MEAN_MOTION_DDOT":0},{"OBJECT_NAME":"ICEYE-X36","OBJECT_ID":"2024-043F","EPOCH":"2026-07-22T20:05:53.394720","CLASSIFICATION_TYPE":"U","MEAN_MOTION":15.07277037,"ECCENTRICITY":0.00059179,"INCLINATION":97.8409,"RA_OF_ASC_NODE":342.5589,"ARG_OF_PERICENTER":184.0113,"MEAN_ANOMALY":176.1068,"EPHEMERIS_TYPE":0,"NORAD_CAT_ID":59103,"ELEMENT_SET_NO":999,"REV_AT_EPOCH":13051,"BSTAR":0.00026344344,"MEAN_MOTION_DOT":0.0000391,"MEAN_MOTION_DDOT":0},{"OBJECT_NAME":"ICEYE-X43","OBJECT_ID":"2024-149BZ","EPOCH":"2026-07-22T22:10:46.644672","CLASSIFICATION_TYPE":"U","MEAN_MOTION":14.9978123,"ECCENTRICITY":0.00064881,"INCLINATION":97.6773,"RA_OF_ASC_NODE":280.407,"ARG_OF_PERICENTER":314.4411,"MEAN_ANOMALY":45.6281,"EPHEMERIS_TYPE":0,"NORAD_CAT_ID":60539,"ELEMENT_SET_NO":999,"REV_AT_EPOCH":10547,"BSTAR":0.000078616022,"MEAN_MOTION_DOT":0.00000913,"MEAN_MOTION_DDOT":0},{"OBJECT_NAME":"ICEYE-X39","OBJECT_ID":"2024-149CG","EPOCH":"2026-07-22T11:58:25.833504","CLASSIFICATION_TYPE":"U","MEAN_MOTION":15.00112458,"ECCENTRICITY":0.0006648,"INCLINATION":97.6804,"RA_OF_ASC_NODE":280.0501,"ARG_OF_PERICENTER":25.651,"MEAN_ANOMALY":334.5042,"EPHEMERIS_TYPE":0,"NORAD_CAT_ID":60546,"ELEMENT_SET_NO":999,"REV_AT_EPOCH":10541,"BSTAR":0.00025104435,"MEAN_MOTION_DOT":0.00003073,"MEAN_MOTION_DDOT":0},{"OBJECT_NAME":"ICEYE-X33","OBJECT_ID":"2024-149CJ","EPOCH":"2026-07-22T04:04:46.472448","CLASSIFICATION_TYPE":"U","MEAN_MOTION":15.00927945,"ECCENTRICITY":0.00018452,"INCLINATION":97.7381,"RA_OF_ASC_NODE":282.1399,"ARG_OF_PERICENTER":65.2412,"MEAN_ANOMALY":294.9003,"EPHEMERIS_TYPE":0,"NORAD_CAT_ID":60548,"ELEMENT_SET_NO":999,"REV_AT_EPOCH":10545,"BSTAR":0.00028335812,"MEAN_MOTION_DOT":0.0000355,"MEAN_MOTION_DDOT":0}]}
